start=new Date('2023-02-03T00:00:00.000Z').valueOf();
sats=[{"PERIOD":"95.439","ELEMENT_SET_NO":"999","GP_ID":"224264385","BSTAR":"-0.00004571800000","NORAD_CAT_ID":"52564","EPHEMERIS_TYPE":"0","APOAPSIS":"540.808","MEAN_MOTION":"15.08812632","OBJECT_ID":"2022-051AH","ARG_OF_PERICENTER":"64.9367","EPOCH":"2023-02-02T18:37:56.976096","SEMIMAJOR_AXIS":"6917.964","TLE_LINE2":"2 52564  53.2145 170.9882 0001415  64.9367 295.1772 15.08812632 40716","RA_OF_ASC_NODE":"170.9882","LAUNCH_DATE":"2022-05-13","CLASSIFICATION_TYPE":"U","TLE_LINE1":"1 52564U 22051AH  23033.77635389 -.00001015  00000-0 -45718-4 0  9999","DECAY_DATE":null,"MEAN_ANOMALY":"295.1772","OBJECT_NAME":"STARLINK-3959","OBJECT_TYPE":"PAYLOAD","MEAN_MOTION_DOT":"-0.00001015","MEAN_ELEMENT_THEORY":"SGP4","PERIAPSIS":"538.850","ECCENTRICITY":"0.00014150","REV_AT_EPOCH":"4071","RCS_SIZE":"LARGE","TIME_SYSTEM":"UTC","CENTER_NAME":"EARTH","INCLINATION":"53.2145","FILE":"3769213","SITE":"AFWTR","COUNTRY_CODE":"US","MEAN_MOTION_DDOT":"0.0000000000000","REF_FRAME":"TEME"},{"ELEMENT_SET_NO":"999","PERIOD":"95.439","NORAD_CAT_ID":"52565","MEAN_MOTION":"15.08823732","APOAPSIS":"540.317","EPHEMERIS_TYPE":"0","GP_ID":"224263913","BSTAR":"0.00016484000000","ARG_OF_PERICENTER":"92.8083","EPOCH":"2023-02-02T12:42:12.400416","OBJECT_ID":"2022-051AJ","LAUNCH_DATE":"2022-05-13","TLE_LINE2":"2 52565  53.2161 157.1005 0000755  92.8083 267.2995 15.08823732 40888","SEMIMAJOR_AXIS":"6917.930","RA_OF_ASC_NODE":"157.1005","OBJECT_TYPE":"PAYLOAD","MEAN_MOTION_DOT":"0.00002336","CLASSIFICATION_TYPE":"U","DECAY_DATE":null,"TLE_LINE1":"1 52565U 22051AJ  23033.52931019  .00002336  00000-0  16484-3 0  9994","MEAN_ANOMALY":"267.2995","OBJECT_NAME":"STARLINK-3911","PERIAPSIS":"539.273","REV_AT_EPOCH":"4088","ECCENTRICITY":"0.00007550","MEAN_ELEMENT_THEORY":"SGP4","INCLINATION":"53.2161","RCS_SIZE":"LARGE","TIME_SYSTEM":"UTC","CENTER_NAME":"EARTH","COUNTRY_CODE":"US","REF_FRAME":"TEME","MEAN_MOTION_DDOT":"0.0000000000000","FILE":"3769215","SITE":"AFWTR"},{"RCS_SIZE":"LARGE","CENTER_NAME":"EARTH","TIME_SYSTEM":"UTC","INCLINATION":"53.2181","FILE":"3769215","SITE":"AFWTR","COUNTRY_CODE":"US","REF_FRAME":"TEME","MEAN_MOTION_DDOT":"0.0000000000000","CLASSIFICATION_TYPE":"U","TLE_LINE1":"1 52566U 22051AK  23033.55552584 -.00000132  00000-0  98101-5 0  9995","DECAY_DATE":null,"MEAN_ANOMALY":"255.7574","OBJECT_NAME":"STARLINK-3938","OBJECT_TYPE":"PAYLOAD","MEAN_MOTION_DOT":"-0.00000132","MEAN_ELEMENT_THEORY":"SGP4","PERIAPSIS":"538.900","REV_AT_EPOCH":"4068","ECCENTRICITY":"0.00012450","OBJECT_ID":"2022-051AK","ARG_OF_PERICENTER":"104.3556","EPOCH":"2023-02-02T13:19:57.432576","TLE_LINE2":"2 52566  53.2181 171.9919 0001245 104.3556 255.7574 15.08834898 40686","SEMIMAJOR_AXIS":"6917.896","RA_OF_ASC_NODE":"171.9919","LAUNCH_DATE":"2022-05-13","ELEMENT_SET_NO":"999","PERIOD":"95.438","GP_ID":"224263907","BSTAR":"0.00000981010000","NORAD_CAT_ID":"52566","APOAPSIS":"540.622","MEAN_MOTION":"15.08834898","EPHEMERIS_TYPE":"0"},{"ELEMENT_SET_NO":"999","PERIOD":"95.436","APOAPSIS":"540.225","EPHEMERIS_TYPE":"0","MEAN_MOTION":"15.08858459","NORAD_CAT_ID":"52567","BSTAR":"0.00013549000000","GP_ID":"224263885","EPOCH":"2023-02-02T17:17:43.454112","ARG_OF_PERICENTER":"178.0066","OBJECT_ID":"2022-051AL","LAUNCH_DATE":"2022-05-13","RA_OF_ASC_NODE":"156.2311","SEMIMAJOR_AXIS":"6917.824","TLE_LINE2":"2 52567  53.2167 156.2311 0000775 178.0066 182.0929 15.08858459 40915","OBJECT_TYPE":"PAYLOAD","MEAN_MOTION_DOT":"0.00001870","TLE_LINE1":"1 52567U 22051AL  23033.72064183  .00001870  00000-0  13549-3 0  9998","DECAY_DATE":null,"MEAN_ANOMALY":"182.0929","OBJECT_NAME":"STARLINK-3929","CLASSIFICATION_TYPE":"U","PERIAPSIS":"539.153","REV_AT_EPOCH":"4091","ECCENTRICITY":"0.00007750","MEAN_ELEMENT_THEORY":"SGP4","INCLINATION":"53.2167","TIME_SYSTEM":"UTC","CENTER_NAME":"EARTH","RCS_SIZE":"LARGE","COUNTRY_CODE":"US","REF_FRAME":"TEME","MEAN_MOTION_DDOT":"0.0000000000000","SITE":"AFWTR","FILE":"3769213"},{"COUNTRY_CODE":"US","MEAN_MOTION_DDOT":"0.0000000000000","REF_FRAME":"TEME","FILE":"3768366","SITE":"AFWTR","INCLINATION":"53.2186","RCS_SIZE":"LARGE","CENTER_NAME":"EARTH","TIME_SYSTEM":"UTC","PERIAPSIS":"538.873","REV_AT_EPOCH":"4081","ECCENTRICITY":"0.00012850","MEAN_ELEMENT_THEORY":"SGP4","OBJECT_TYPE":"PAYLOAD","MEAN_MOTION_DOT":"-0.00000900","CLASSIFICATION_TYPE":"U","TLE_LINE1":"1 52568U 22051AM  23033.51090637 -.00000900  00000-0 -38460-4 0  9994","DECAY_DATE":null,"MEAN_ANOMALY":"261.1249","OBJECT_NAME":"STARLINK-3930","LAUNCH_DATE":"2022-05-13","TLE_LINE2":"2 52568  53.2186 157.1862 0001285  98.9888 261.1249 15.08834453 40818","SEMIMAJOR_AXIS":"6917.897","RA_OF_ASC_NODE":"157.1862","ARG_OF_PERICENTER":"98.9888","EPOCH":"2023-02-02T12:15:42.310368","OBJECT_ID":"2022-051AM","NORAD_CAT_ID":"52568","EPHEMERIS_TYPE":"0","APOAPSIS":"540.651","MEAN_MOTION":"15.08834453","GP_ID":"224241510","BSTAR":"-0.00003846000000","ELEMENT_SET_NO":"999","PERIOD":"95.438"},{"INCLINATION":"53.2142","TIME_SYSTEM":"UTC","CENTER_NAME":"EARTH","RCS_SIZE":"LARGE","COUNTRY_CODE":"US","REF_FRAME":"TEME","MEAN_MOTION_DDOT":"0.0000000000000","SITE":"AFWTR","FILE":"3769217","OBJECT_TYPE":"PAYLOAD","MEAN_MOTION_DOT":"0.00000869","TLE_LINE1":"1 52569U 22051AN  23033.71697470  .00000869  00000-0  72643-4 0  9998","DECAY_DATE":null,"MEAN_ANOMALY":"253.8831","OBJECT_NAME":"STARLINK-3927","CLASSIFICATION_TYPE":"U","PERIAPSIS":"538.895","ECCENTRICITY":"0.00011890","REV_AT_EPOCH":"4091","MEAN_ELEMENT_THEORY":"SGP4","EPOCH":"2023-02-02T17:12:26.614080","ARG_OF_PERICENTER":"106.2292","OBJECT_ID":"2022-051AN","LAUNCH_DATE":"2022-05-13","RA_OF_ASC_NODE":"156.2564","TLE_LINE2":"2 52569  53.2142 156.2564 0001189 106.2292 253.8831 15.08849195 40910","SEMIMAJOR_AXIS":"6917.852","PERIOD":"95.437","ELEMENT_SET_NO":"999","EPHEMERIS_TYPE":"0","APOAPSIS":"540.540","MEAN_MOTION":"15.08849195","NORAD_CAT_ID":"52569","BSTAR":"0.00007264300000","GP_ID":"224264448"},{"EPOCH":"2023-02-02T16:56:33.385344","ARG_OF_PERICENTER":"80.9198","OBJECT_ID":"2022-051AP","LAUNCH_DATE":"2022-05-13","RA_OF_ASC_NODE":"156.2991","TLE_LINE2":"2 52570  53.2190 156.2991 0001052  80.9198 279.1913 15.08831737 40916","SEMIMAJOR_AXIS":"6917.906","ELEMENT_SET_NO":"999","PERIOD":"95.438","APOAPSIS":"540.498","MEAN_MOTION":"15.08831737","EPHEMERIS_TYPE":"0","NORAD_CAT_ID":"52570","BSTAR":"0.00009989700000","GP_ID":"224263921","INCLINATION":"53.2190","TIME_SYSTEM":"UTC","CENTER_NAME":"EARTH","RCS_SIZE":"LARGE","COUNTRY_CODE":"US","REF_FRAME":"TEME","MEAN_MOTION_DDOT":"0.0000000000000","SITE":"AFWTR","FILE":"3769239","OBJECT_TYPE":"PAYLOAD","MEAN_MOTION_DOT":"0.00001302","MEAN_ANOMALY":"279.1913","TLE_LINE1":"1 52570U 22051AP  23033.70594196  .00001302  00000-0  99897-4 0  9993","DECAY_DATE":null,"OBJECT_NAME":"STARLINK-3924","CLASSIFICATION_TYPE":"U","PERIAPSIS":"539.043","REV_AT_EPOCH":"4091","ECCENTRICITY":"0.00010520","MEAN_ELEMENT_THEORY":"SGP4"},{"TIME_SYSTEM":"UTC","CENTER_NAME":"EARTH","RCS_SIZE":"LARGE","INCLINATION":"53.2194","SITE":"AFWTR","FILE":"3768366","COUNTRY_CODE":"US","MEAN_MOTION_DDOT":"0.0000000000000","REF_FRAME":"TEME","TLE_LINE1":"1 52574U 22051AQ  23033.51458799 -.00000144  00000-0  90337-5 0  9999","MEAN_ANOMALY":"271.7188","DECAY_DATE":null,"OBJECT_NAME":"STARLINK-3901","CLASSIFICATION_TYPE":"U","OBJECT_TYPE":"PAYLOAD","MEAN_MOTION_DOT":"-0.00000144","MEAN_ELEMENT_THEORY":"SGP4","PERIAPSIS":"538.968","ECCENTRICITY":"0.00011630","REV_AT_EPOCH":"4081","OBJECT_ID":"2022-051AQ","EPOCH":"2023-02-02T12:21:00.402336","ARG_OF_PERICENTER":"88.3937","RA_OF_ASC_NODE":"157.1655","TLE_LINE2":"2 52574  53.2194 157.1655 0001163  88.3937 271.7188 15.08831222 40817","SEMIMAJOR_AXIS":"6917.907","LAUNCH_DATE":"2022-05-13","ELEMENT_SET_NO":"999","PERIOD":"95.438","BSTAR":"0.00000903370000","GP_ID":"224243003","EPHEMERIS_TYPE":"0","APOAPSIS":"540.577","MEAN_MOTION":"15.08831222","NORAD_CAT_ID":"52574"},{"APOAPSIS":"540.637","EPHEMERIS_TYPE":"0","MEAN_MOTION":"15.08841037","NORAD_CAT_ID":"52575","BSTAR":"0.00008991200000","GP_ID":"224264393","ELEMENT_SET_NO":"999","PERIOD":"95.437","LAUNCH_DATE":"2022-05-13","RA_OF_ASC_NODE":"156.3211","TLE_LINE2":"2 52575  53.2171 156.3211 0001294  89.8938 270.2202 15.08841037 40911","SEMIMAJOR_AXIS":"6917.877","EPOCH":"2023-02-02T16:51:15.378912","ARG_OF_PERICENTER":"89.8938","OBJECT_ID":"2022-051AR","ECCENTRICITY":"0.00012940","REV_AT_EPOCH":"4091","PERIAPSIS":"538.847","MEAN_ELEMENT_THEORY":"SGP4","MEAN_MOTION_DOT":"0.00001143","OBJECT_TYPE":"PAYLOAD","OBJECT_NAME":"STARLINK-3920","MEAN_ANOMALY":"270.2202","TLE_LINE1":"1 52575U 22051AR  23033.70226133  .00001143  00000-0  89912-4 0  9991","DECAY_DATE":null,"CLASSIFICATION_TYPE":"U","MEAN_MOTION_DDOT":"0.0000000000000","REF_FRAME":"TEME","COUNTRY_CODE":"US","SITE":"AFWTR","FILE":"3769214","INCLINATION":"53.2171","CENTER_NAME":"EARTH","TIME_SYSTEM":"UTC","RCS_SIZE":"LARGE"},{"RA_OF_ASC_NODE":"156.3504","SEMIMAJOR_AXIS":"6917.877","TLE_LINE2":"2 52576  53.2212 156.3504 0001470 110.3027 249.8123 15.08841249 40917","LAUNCH_DATE":"2022-05-13","OBJECT_ID":"2022-051AS","EPOCH":"2023-02-02T16:42:01.992960","ARG_OF_PERICENTER":"110.3027","BSTAR":"0.00002497100000","GP_ID":"224263901","APOAPSIS":"540.758","EPHEMERIS_TYPE":"0","MEAN_MOTION":"15.08841249","NORAD_CAT_ID":"52576","PERIOD":"95.437","ELEMENT_SET_NO":"999","SITE":"AFWTR","FILE":"3769214","COUNTRY_CODE":"US","REF_FRAME":"TEME","MEAN_MOTION_DDOT":"0.0000000000000","TIME_SYSTEM":"UTC","CENTER_NAME":"EARTH","RCS_SIZE":"LARGE","INCLINATION":"53.2212","MEAN_ELEMENT_THEORY":"SGP4","PERIAPSIS":"538.725","ECCENTRICITY":"0.00014700","REV_AT_EPOCH":"4091","TLE_LINE1":"1 52576U 22051AS  23033.69585640  .00000109  00000-0  24971-4 0  9996","MEAN_ANOMALY":"249.8123","DECAY_DATE":null,"OBJECT_NAME":"STARLINK-3932","CLASSIFICATION_TYPE":"U","OBJECT_TYPE":"PAYLOAD","MEAN_MOTION_DOT":"0.00000109"}];
